COSMOS 2058             
1 20465U 90010A   26193.34834588  .00001492  00000+0  84801-4 0  9991
2 20465  82.4672 284.5406 0007883 261.9536  98.0800 15.12147446961078
SL-14 R/B               
1 20466U 90010B   26193.32400134  .00000198  00000+0  21092-4 0  9991
2 20466  82.5034 150.3385 0018280 247.4929 112.4351 14.83662061946961
SL-14 R/B               
1 20511U 90018B   26193.19179806  .00000213  00000+0  23652-4 0  9996
2 20511  82.5220 106.7376 0017239  46.1199 314.1435 14.82232884941021
HST                     
1 20580U 90037B   26193.50194391  .00003754  00000+0  11416-3 0  9991
2 20580  28.4726 267.5224 0002270  77.7190 282.3660 15.31043109792457
SL-16 R/B               
1 20625U 90046B   26192.97287261  .00000110  00000+0  81407-4 0  9991
2 20625  70.9983  36.8922 0012451 120.0201 240.2159 14.15023251865974
COSMOS 2084             
1 20663U 90055A   26193.48948358  .00000925  00000+0  76535-4 0  9991
2 20663  62.7888 269.7241 0007743 315.6522  44.3958 15.06217689955113
SL-6 R/B(2)             
1 20666U 90055D   26193.38030860  .00001023  00000+0  86820-4 0  9991
2 20666  62.7801 189.6408 0044697   8.6311 351.5546 15.04080778956943
SL-8 R/B                
1 20775U 90078B   26193.26112478  .00012737  00000+0  36078-3 0  9993
2 20775  82.9025 138.9674 0344008 313.5398  43.7707 14.93507034827863
SL-8 R/B                
1 21088U 91006B   26193.14323002  .00000071  00000+0  55864-4 0  9990
2 21088  82.9412  77.4672 0023577  48.6552 114.2035 13.77508751781202
OKEAN-3                 
1 21397U 91039A   26193.53025264  .00001551  00000+0  10601-3 0  9994
2 21397  82.5139 215.8030 0012211 264.7688  95.2146 15.05425261883815
COSMOS 2151             
1 21422U 91042A   26193.46759356  .00000682  00000+0  51895-4 0  9990
2 21422  82.4979 323.2829 0012223   4.7672 355.3666 15.00508860881900
SL-14 R/B               
1 21423U 91042B   26193.20365155  .00000178  00000+0  19493-4 0  9991
2 21423  82.4934 103.4370 0016712 186.7796 173.3195 14.81917065871516
ERS-1                   
1 21574U 91050A   26193.53498655  .00000139  00000+0  59143-4 0  9998
2 21574  98.7795 214.8519 0031730 189.6609 170.3972 14.39531767833693
ARIANE 40 R/B           
1 21610U 91050F   26193.15093977  .00000127  00000+0  50412-4 0  9992
2 21610  98.1864 240.5938 0004263  68.0686 292.0958 14.42970859836942
INTERCOSMOS 25          
1 21819U 91086A   26193.45172529  .00000545  00000+0  10569-3 0  9998
2 21819  82.6013 234.5213 1484444 207.8465 143.4873 12.12238459511806
SL-8 R/B                
1 21876U 92008B   26193.44244314  .00000111  00000+0  98301-4 0  9997
2 21876  82.9271 175.0098 0035512 144.1182 332.7893 13.75983212726575
SL-8 R/B                
1 21938U 92020B   26193.09479950  .00000032  00000+0  17835-4 0  9992
2 21938  82.9287  61.3543 0028079 312.6073 199.8214 13.75550283718235
USA 81                  
1 21949U 92023A   26193.07376222  .00000109  00000+0  32821-4 0  9990
2 21949  85.0053  59.6411 0002113  65.7884 294.3530 14.32404401112596
COSMOS 2219             
1 22219U 92076A   26193.16084853 -.00000173  00000+0 -65874-4 0  9992
2 22219  71.0615 117.8665 0018071   2.1853 357.9345 14.14109574735971
SL-16 R/B               
1 22220U 92076B   26193.52080707  .00000226  00000+0  13665-3 0  9995
2 22220  71.0005 285.4151 0015018 265.4861 179.4886 14.16876243739516
COSMOS 2221             
1 22236U 92080A   26193.41265957  .00000889  00000+0  75582-4 0  9999
2 22236  82.5045 159.5961 0015527 128.6864 231.5750 14.96599087799446
SL-16 R/B               
1 22285U 92093B   26193.18874262 -.00000173  00000+0 -64017-4 0  9995
2 22285  71.0222 102.9067 0002412 142.0731 218.0562 14.15466713730773
COSMOS 2228             
1 22286U 92094A   26193.47696569  .00000983  00000+0  81512-4 0  9997
2 22286  82.5189 117.8193 0016155 239.0463 120.9173 14.97670485794734
SL-16 R/B               
1 22566U 93016B   26193.52484089  .00000049  00000+0  49393-4 0  9995
2 22566  71.0084 312.9892 0008945 142.8585 217.3158 14.15311658719836
COSMOS 2242             
1 22626U 93024A   26193.31434196  .00000937  00000+0  79074-4 0  9997
2 22626  82.5197 147.5028 0014488 243.3080 116.6660 14.96979434799034
SL-16 R/B               
1 22803U 93059B   26192.98126055 -.00000251  00000+0 -10051-3 0  9996
2 22803  70.9905 109.0183 0016475  13.3502 346.8054 14.17250340697140
ARIANE 40 R/B           
1 22830U 93061H   26193.20380076  .00000076  00000+0  43684-4 0  9992
2 22830  98.4808 259.5398 0009468 275.6370  84.3735 14.32917815711934
COSMOS 2278             
1 23087U 94023A   26193.49493949 -.00000109  00000+0 -32513-4 0  9999
2 23087  71.0527 273.9760 0009794 209.7506 150.3061 14.14393350662458
SL-16 R/B               
1 23088U 94023B   26193.34401977 -.00000022  00000+0  13011-4 0  9999
2 23088  70.9981 169.0993 0001454 139.0250 221.0982 14.15023885663723
SL-16 R/B               
1 23343U 94074B   26193.03004072  .00000215  00000+0  35341-4 0  9993
2 23343  97.6986 218.7149 0006909 163.7905 227.7510 14.79522673705630
SL-16 R/B               
1 23405U 94077B   26193.13566426 -.00000235  00000+0 -95768-4 0  9995
2 23405  70.9825  90.6765 0004089 305.7671  54.3071 14.15574887633844
ARIANE 40+ R/B          
1 23561U 95021B   26193.13535449  .00000117  00000+0  51049-4 0  9990
2 23561  98.4401 262.8487 0007815 124.3604 267.0722 14.39846545637150
SL-16 R/B               
1 23705U 95058B   26193.50197698  .00000007  00000+0  27712-4 0  9999
2 23705  71.0212 278.2098 0014613 286.2563  73.6952 14.15508054585514
SL-16 R/B               
1 24298U 96051B   26193.52634252  .00000144  00000+0  10436-3 0  9991
2 24298  70.7647 271.0248 0017596 301.5033  58.4367 14.12455415539276
ORBVIEW 2 (SEASTAR)     
1 24883U 97037A   26193.46007216  .00000112  00000+0  55102-4 0  9998
2 24883  98.8710   1.1824 0003142  66.3262 293.8252 14.35566011526377
SL-16 R/B               
1 25400U 98043G   26193.48103672 -.00000009  00000+0  15441-4 0  9995
2 25400  98.8378 147.8598 0010179  19.0256 341.1301 14.26072452456774
SL-16 R/B               
1 25407U 98045B   26193.52230012 -.00000257  00000+0 -10586-3 0  9998
2 25407  71.0115 279.0497 0008331 210.4435 149.6206 14.16206205444778
ISS (ZARYA)             
1 25544U 98067A   26193.41162669  .00004782  00000+0  94926-4 0  9990
2 25544  51.6301 175.2558 0006698 286.7033  73.3220 15.48989885575660
CZ-4B R/B               
1 25732U 99025C   26193.54795810  .00000013  00000+0  27271-4 0  9990
2 25732  98.6474 234.7466 0036781 347.4519 139.0707 14.18287388405869
OKEAN-O                 
1 25860U 99039A   26193.15187317  .00000281  00000+0  43506-4 0  9997
2 25860  97.9303 251.6616 0000932  81.5197 278.6121 14.80495232452800
SL-16 R/B               
1 25861U 99039B   26193.15048503  .00000253  00000+0  38747-4 0  9991
2 25861  97.9824 251.9407 0014091 208.7043 151.3395 14.81868951455293
DELTA 2 R/B             
1 25876U 99041E   26193.30278529  .00001331  00000+0  25225-3 0  9994
2 25876  51.7614 163.4543 0501318 356.2165   3.5037 14.12076722380636
HELIOS 1B               
1 25977U 99064A   26193.19321017  .00000701  00000+0  82672-4 0  9999
2 25977  98.1589  99.0547 0002085  57.7320 302.4097 14.88070775703771
TERRA                   
1 25994U 99068A   26193.50658757  .00000197  00000+0  48991-4 0  9996
2 25994  97.9443 242.0472 0003302 127.9844   5.6237 14.61122391413305
SL-16 R/B               
1 26070U 00006B   26193.42874103 -.00000229  00000+0 -91725-4 0  9993
2 26070  71.0002 195.5499 0017087 343.8108  16.2466 14.15838664366218
TITAN 4B R/B            
1 26474U 00047B   26193.55774990  .00001293  00000+0  85273-4 0  9994
2 26474  67.9872  49.1532 0045890 261.3691  98.2258 15.10325453411764
ENVISAT                 
1 27386U 02009A   26193.49876358  .00000018  00000+0  19721-4 0  9990
2 27386  98.3846 144.2545 0001343  83.8429  30.7851 14.39070395277120
IDEFIX & ARIANE 42P R/B 
1 27422U 02021B   26193.43949843  .00000088  00000+0  49937-4 0  9998
2 27422  98.5942 130.6494 0011716 174.4438 185.6877 14.31093004261860
AQUA                    
1 27424U 02022A   26193.52003550  .00000389  00000+0  87063-4 0  9993
2 27424  98.4293 163.3119 0000851 107.9814   2.1763 14.62194755286979
CZ-4B R/B               
1 27432U 02024C   26192.99432005  .00000002  00000+0  23597-4 0  9999
2 27432  98.8688 245.6518 0050634  31.0033  17.9338 14.14567830246817
MIDORI II (ADEOS-II)    
1 27597U 02056A   26193.47852169  .00000104  00000+0  58722-4 0  9998
2 27597  98.7893 152.9554 0001592  43.1202 317.0104 14.29362295228120
H-2A R/B                
1 27601U 02056E   26193.49254293  .00000113  00000+0  54115-4 0  9992
2 27601  98.3327 149.2465 0070740 148.9041 322.1677 14.33832971231999
CZ-4B R/B               
1 28059U 03049C   26193.53624235  .00000136  00000+0  42897-4 0  9994
2 28059  98.6908 193.3931 0047470 209.4665 150.3854 14.55114993204755
CZ-2C R/B               
1 28222U 04012C   26193.15106945  .00102383  00000+0  44260-3 0  9990
2 28222  97.7081 271.8195 0011580 200.8727 159.2071 15.84548107223841
SL-16 R/B               
1 28353U 04021B   26193.54687905  .00000061  00000+0  56353-4 0  9995
2 28353  71.0026 330.4658 0006405 227.2701 132.7883 14.14616041140492
CZ-4B R/B               
1 28415U 04035C   26193.03766097  .00004512  00000+0  15152-3 0  9999
2 28415  97.3361 225.8348 0029048 244.4773 115.3464 15.30964386198925
CZ-2C R/B               
1 28480U 04046B   26193.29341831  .00000042  00000+0  30430-4 0  9997
2 28480  98.1921 100.5024 0139974 145.9266 215.1000 14.27032493126274
ARIANE 5 R/B            
1 28499U 04049H   26193.45732547  .00000288  00000+0  38649-4 0  9998
2 28499  98.2739   6.6900 0082755 307.2822  52.0867 14.85477046164313
CZ-2D R/B               
1 28738U 05024B   26193.50665615  .00044302  00000+0  33245-3 0  9996
2 28738  97.3475 214.2517 0001955 199.9332 160.1855 15.72496100159313
ALOS (DAICHI)           
1 28931U 06002A   26193.47860105  .00000509  00000+0  92982-4 0  9990
2 28931  98.1336 148.9696 0000793  92.6298 267.4998 14.70098750 91818
